GLOBALSTAR M068         
1 32266U 07048D   24363.57344031 -.00000053  00000+0  28195-3 0  9999
2 32266  51.9885 102.3390 0001807 120.9868 252.0383 12.62812826796008
GLOBALSTAR M079         
1 37188U 10054A   24363.55975707 -.00000080  00000+0  13163-3 0  9995
2 37188  52.0052 299.2060 0000451  31.8430 139.1855 12.62268833654907
GLOBALSTAR M074         
1 37189U 10054B   24364.10548361 -.00000077  00000+0  14877-3 0  9999
2 37189  52.0029 296.8923 0000819  50.8795 321.8996 12.62260673655659
GLOBALSTAR M076         
1 37190U 10054C   24364.13199890 -.00000078  00000+0  14550-3 0  9992
2 37190  52.0042 296.9682 0000766  28.8726 343.9607 12.62275341655662
GLOBALSTAR M077         
1 37191U 10054D   24363.81672617 -.00000057  00000+0  25916-3 0  9995
2 37191  52.0066 254.7368 0000930  64.7735  13.9639 12.62269056656378
GLOBALSTAR M075         
1 37192U 10054E   24364.22434921 -.00000086  00000+0  97439-4 0  9998
2 37192  51.9968 339.0363 0000457  59.2422 314.4208 12.62270694654915
GLOBALSTAR M073         
1 37193U 10054F   24364.09571204 -.00000057  00000+0  25955-3 0  9991
2 37193  52.0052 253.1182 0000878  58.6998  90.0240 12.62261636656400
GLOBALSTAR M083         
1 37739U 11033A   24363.84156737 -.00000057  00000+0  26161-3 0  9997
2 37739  51.9831 202.8550 0000917  91.1175 282.2327 12.62270127625707
GLOBALSTAR M088         
1 37740U 11033B   24363.57748762 -.00000117  00000+0 -71457-4 0  9991
2 37740  51.9729 109.2921 0000809 125.7834 247.4187 12.62266667620855
GLOBALSTAR M091         
1 37741U 11033C   24363.62343969 -.00000092  00000+0  67575-4 0  9995
2 37741  52.0007  72.4041 0000681 152.9490   8.2764 12.62272113621903
GLOBALSTAR M085         
1 37742U 11033D   24363.44706574 -.00000089  00000+0  84283-4 0  9992
2 37742  51.9886  24.1295 0000316 156.0015 344.1673 12.62263222622133
GLOBALSTAR M081         
1 37743U 11033E   24364.16197858 -.00000080  00000+0  13009-3 0  9990
2 37743  51.9977  24.6334 0000061 209.5233 181.5750 12.62274614622751
GLOBALSTAR M089         
1 37744U 11033F   24364.12743646 -.00000085  00000+0  10483-3 0  9997
2 37744  51.9952 339.0004 0000585  36.8120  16.2808 12.62274175623468
GLOBALSTAR M084         
1 38040U 11080A   24364.00558174 -.00000061  00000+0  23956-3 0  9999
2 38040  51.9982 206.5687 0001307  73.3713  85.8824 12.62273074601455
GLOBALSTAR M080         
1 38041U 11080B   24363.86821552 -.00000061  00000+0  24130-3 0  9991
2 38041  52.0035 208.5365 0001246  58.3810 314.7944 12.62260026601422
GLOBALSTAR M082         
1 38042U 11080C   24363.81907258 -.00000099  00000+0  24829-4 0  9992
2 38042  52.0051 164.1111 0001282 120.8124 329.9834 12.62271754602157
GLOBALSTAR M092         
1 38043U 11080D   24363.49346593 -.00000069  00000+0  19681-3 0  9992
2 38043  52.0076 255.4719 0001015  69.2585 101.2224 12.62271092600397
GLOBALSTAR M090         
1 38044U 11080E   24363.52458965 -.00000112  00000+0 -46015-4 0  9996
2 38044  51.9862 159.0352 0001023 112.3266 319.6366 12.62265332602064
GLOBALSTAR M086         
1 38045U 11080F   24363.54166443 -.00000096  00000+0  45069-4 0  9994
2 38045  51.9875 159.5207 0000397  46.9251 343.1231 12.62265251602010
GLOBALSTAR M097         
1 39072U 13005A   24363.56182552 -.00000100  00000+0  20138-4 0  9991
2 39072  52.0056  73.8349 0000479 142.6835 217.4065 12.62268274549265
GLOBALSTAR M093         
1 39073U 13005B   24363.53473511 -.00000092  00000+0  68056-4 0  9998
2 39073  51.9821  67.4889 0000448 147.3478 212.7416 12.62260550549215
GLOBALSTAR M094         
1 39074U 13005C   24363.45601653 -.00000097  00000+0  38657-4 0  9999
2 39074  51.9980 341.9431 0000062 349.2344  10.8521 12.62266451550810
GLOBALSTAR M096         
1 39075U 13005D   24363.54841162 -.00000085  00000+0  10195-3 0  9994
2 39075  52.0091  30.0431 0000356 173.2554 186.8317 12.62266133549740
GLOBALSTAR M078         
1 39076U 13005E   24363.75898726 -.00000104  00000+0  85796-6 0  9990
2 39076  51.9868 114.1390 0001571 140.9983 219.0997 12.62267955548606
GLOBALSTAR M095         
1 39077U 13005F   24363.70660164 -.00000113  00000+0 -53286-4 0  9997
2 39077  51.9795 111.5828 0001131 148.6640 211.4294 12.62269844548605
GLOBALSTAR M087         
1 52888U 22064A   24364.08261099 -.00000058  00000+0  21127-3 0  9998
2 52888  51.9773 254.3400 0021366   4.2739 355.8318 12.88918210123511
